UNKNOWN                 
1 81838U          25259.02806890  .00005645  00000+0  13092-2 0  9990
2 81838  67.7607 135.2991 0034231 101.7456 324.7467 14.55293198620569
UNKNOWN                 
1 81844U          25259.02240585  .00005215  00000+0  19067-2 0  9991
2 81844  82.9136 354.3247 0064555  64.3952 296.3888 14.31654122610334
UNKNOWN                 
1 81845U          25259.28524105  .00002880  00000+0  32713-3 0  9992
2 81845  97.6810  89.4852 0088082 232.1626 304.4362 14.84283594636547
UNKNOWN                 
1 81864U          25258.73678910  .00001015  00000+0  43503-3 0  9994
2 81864  65.6708 272.4373 0758500  51.4597 315.1976 13.31926360539110
UNKNOWN                 
1 81865U          25257.88192426  .00000941  00000+0  77183-3 0  9991
2 81865  82.8010  97.2716 0062446 257.7434 165.5022 13.87600758596225
UNKNOWN                 
1 81893U          25259.21067436  .00000848  00000+0  91579-3 0  9994
2 81893 100.0359 237.7656 0021015 130.1637 230.1355 13.76412325592037
UNKNOWN                 
1 81899U          25258.20051560  .00000423  00000+0  11082-2 0  9998
2 81899 102.4166 344.0938 0174412  42.0244 319.4094 13.19867877567301
UNKNOWN                 
1 81921U          25258.71944094  .00000476  00000+0  22077-3 0  9998
2 81921  65.7109 252.8841 0852032 152.4828 212.4132 13.14765240 14217
UNKNOWN                 
1 81946U          25259.17411670 -.00000427  00000+0 -12374-2 0  9991
2 81946  66.4208 321.0487 0666599  33.7100 358.0465 12.42547423537006
UNKNOWN                 
1 81947U          25255.71806634  .00007398  00000+0  68847-3 0  9995
2 81947  66.0758  61.8590 0391755 198.8935 159.7288 14.50998308617804
UNKNOWN                 
1 81964U          25259.32591134  .00000182  00000+0  19055-3 0  9992
2 81964  66.5832 115.8584 0033113 155.7780 204.4865 13.95712075601844
UNKNOWN                 
1 81969U          25259.25652356  .00011191  00000+0  71718-3 0  9999
2 81969  86.6924 191.2795 0007871 111.4808 248.7270 15.08398405426971
UNKNOWN                 
1 81995U          25257.53456926  .00002861  00000+0  57683-3 0  9991
2 81995  65.7492 357.0405 0521292 340.9670  17.2540 14.01979044591712
UNKNOWN                 
1 82043U          25259.38398909  .00001201  00000+0  34600-3 0  9998
2 82043  97.9223  55.4820 0233506 346.3869  13.1087 14.31718628561343
UNKNOWN                 
1 82051U          25258.50289947  .00005868  00000+0  19914-2 0  9994
2 82051  98.7503 342.7920 0096422 160.2141 200.2824 14.34437227559751
UNKNOWN                 
1 82073U          25259.45699889  .00004081  00000+0  10547-2 0  9992
2 82073  97.7584 343.8963 0209939 193.6044 165.9434 14.38040209562575
UNKNOWN                 
1 82139U          25257.12863957  .00001498  00000+0  77598-3 0  9995
2 82139  99.0291 323.9487 0081716 295.7628  63.5128 14.14774106467448
UNKNOWN                 
1 82162U          25258.51465766  .00003826  00000+0  57758-2 0  9993
2 82162 100.4774 178.0152 0057791  69.1687 291.5622 13.52675713492376
UNKNOWN                 
1 82180U          25258.19932175  .00019674  00000+0  26121-2 0  9998
2 82180  65.6544 177.9031 0339373 261.5942  94.6557 14.46998790588921
UNKNOWN                 
1 82189U          25259.58272436  .00000335  00000+0  12638-3 0  9991
2 82189  74.0346 208.1079 0015291  58.1613 302.1025 14.35114801619910
UNKNOWN                 
1 82199U          25259.37479117  .00000435  00000+0  36563-3 0  9998
2 82199  82.9652 299.5754 0035215 284.4538  91.0779 13.85640070597596
UNKNOWN                 
1 82205U          25259.36870960  .00001419  00000+0  43648-3 0  9991
2 82205  63.0096 133.2311 0493881 283.8915  70.7679 13.92498007595835
UNKNOWN                 
1 82223U          25256.10933972  .00001520  00000+0  85057-3 0  9996
2 82223  99.3244 138.5916 0067347 239.4370 120.0143 14.11233089436004
UNKNOWN                 
1 82250U          25255.21023615  .00002672  00000+0  14241-2 0  9996
2 82250  98.9058 161.0793 0073507  88.6745  63.7251 14.12821213603700
UNKNOWN                 
1 82272U          25258.00768269  .00000334  00000+0  11695-2 0  9994
2 82272  67.5285   1.4186 0757532 163.5123 199.2052 12.33466274260998
UNKNOWN                 
1 82295U          25257.34465162  .00000891  00000+0  33970-3 0  9990
2 82295  66.6201  23.2713 0130472 283.1203  75.5362 14.30964665566934
UNKNOWN                 
1 82303U          25258.25931978  .00030654  00000+0  28916-1 0  9996
2 82303  81.9380  79.1541 0082379 234.1005 301.3288 13.79528905502199
UNKNOWN                 
1 82311U          25258.11610645  .00000510  00000+0  77712-3 0  9993
2 82311  99.4430 315.9514 0111697 170.9940 189.3236 13.54384457538326
UNKNOWN                 
1 82363U          25254.08668882  .00000609  00000+0  10356-2 0  9997
2 82363  66.9385  32.3631 0462612 224.7393 131.5459 13.15495313278077
UNKNOWN                 
1 82369U          25258.79517746 -.00000099  00000+0 -38217-4 0  9990
2 82369  98.9066 276.4912 0082943 221.3580 138.1284 13.98097894544880
UNKNOWN                 
1 82381U          25258.07250954  .00012323  00000+0  18241-2 0  9994
2 82381  98.4039 119.0941 0012244  62.0835 298.1611 14.75256554497719
UNKNOWN                 
1 82402U          25259.06960431  .00006302  00000+0  47975-3 0  9993
2 82402  86.6678 193.3815 0011317 113.2745 246.9681 15.01876868441303
UNKNOWN                 
1 82410U          25246.22332339  .00000281  00000+0  35505-3 0  9992
2 82410  66.6560 220.2472 0055059 110.5534 250.1456 13.77165734572896
UNKNOWN                 
1 82432U          25253.01668971  .00001900  00000+0  41126-3 0  9990
2 82432  74.0094 159.2634 0056472 344.6480  15.2968 14.57982061469247
UNKNOWN                 
1 82448U          25258.39655754  .00008814  00000+0  67035-3 0  9996
2 82448  85.8698 246.4675 0007598 202.5883 157.5016 15.01982622423777
UNKNOWN                 
1 82453U          25259.35958906 -.00000001  00000+0  33041-3 0  9995
2 82453 102.1581 215.8411 0094545   8.3382 351.9228 12.39694042535233
UNKNOWN                 
1 82458U          25259.16485087  .00003523  00000+0  16141-2 0  9996
2 82458  66.5146  51.4515 0045307  74.0664 286.5414 14.21958274597581
UNKNOWN                 
1 82484U          25255.82443624  .00000071  00000+0  16020-3 0  9997
2 82484  99.3674 282.0733 0045093  66.9129 293.6753 13.55749594578316
UNKNOWN                 
1 82494U          25259.54978506  .00016449  00000+0  20931-2 0  9994
2 82494  74.0095 194.8634 0007196 321.1540  38.9119 14.81559788 72037
UNKNOWN                 
1 82500U          25257.09849672  .00002276  00000+0  10618-2 0  9995
2 82500  70.9661 193.3986 0124798 252.9472 105.7949 14.17446689606240
UNKNOWN                 
1 82524U          25257.61200411  .00002461  00000+0  82088-3 0  9998
2 82524  73.2843 352.3173 0136504 122.7609 302.2552 14.33004105564263
UNKNOWN                 
1 82529U          25257.98950501  .00000013  00000+0  83434-4 0  9993
2 82529  99.7921 344.1808 0237170  97.7638  74.8680 13.41031402577846
UNKNOWN                 
1 82545U          25259.43935436 -.00000020  00000+0  60584-3 0  9992
2 82545  64.8848 309.9749 0183929 306.9804  51.4407 11.30807630429046
UNKNOWN                 
1 82560U          25256.10198694  .00000927  00000+0  78876-3 0  9995
2 82560  99.9777 192.0332 0008538 178.2736 198.2443 13.90260218599274
UNKNOWN                 
1 82597U          25256.62231332  .00001034  00000+0  37383-3 0  9997
2 82597  66.7728  25.1663 0090787  12.4295 347.9015 14.35215671616047
UNKNOWN                 
1 82617U          25259.41350165  .00000579  00000+0  15792-3 0  9999
2 82617  74.0269  47.5249 0038480  11.3455 348.8563 14.49203779624170
UNKNOWN                 
1 82627U          25256.14816289  .00000669  00000+0  17300-2 0  9997
2 82627  82.4775 313.2457 0007438 339.3874  51.3674 13.16127553566911
UNKNOWN                 
1 82642U          25257.46551552  .00001169  00000+0  67087-3 0  9993
2 82642  98.9745 168.6803 0137663 125.7396 235.6668 14.06618140603586
UNKNOWN                 
1 82683U          25259.45356734  .00000865  00000+0  34433-3 0  9995
2 82683  98.1824 334.9314 0210337 291.4027  66.4828 14.19745522449886
UNKNOWN                 
1 82693U          25257.11815314  .00002088  00000+0  24705-2 0  9990
2 82693 100.5293 212.4464 0038694 254.1857 105.5017 13.68841929541498
UNKNOWN                 
1 82698U          25259.61693571  .00001860  00000+0  11420-2 0  9998
2 82698  61.6145  23.6751 0685797 257.0054  95.3565 13.28965392526797
UNKNOWN                 
1 82708U          25259.34629084  .00000740  00000+0  29913-2 0  9990
2 82708 102.1731  94.0564 0060322 101.3994 259.3881 12.90341922512243
UNKNOWN                 
1 82729U          25257.54204024 -.00000085  00000+0 -15231-3 0  9999
2 82729  67.9678 300.0503 0823604  72.2159 296.6910 12.17601356524346
UNKNOWN                 
1 82739U          25258.68502126  .00001813  00000+0  15276-2 0  9996
2 82739  99.0828  58.1034 0176046 168.8457 205.1795 13.82244256593947
UNKNOWN                 
1 82741U          25257.48025791  .00001857  00000+0  20570-2 0  9995
2 82741 102.8519 264.2461 0201652 106.2405 256.1013 13.65391204584895
UNKNOWN                 
1 82783U          25258.34529731  .00000113  00000+0  30978-3 0  9998
2 82783  90.3384  35.3597 0020855 353.0090   7.0743 13.08852012492791
UNKNOWN                 
1 82798U          25232.41890888  .00001594  00000+0  70792-3 0  9990
2 82798  82.9486 283.3588 0032589 153.1850 226.4764 14.22178178296100
UNKNOWN                 
1 82820U          25259.13855374  .00003730  00000+0  13403-2 0  9994
2 82820  99.7853  48.3676 0050082 263.8042  95.7431 14.33843535613072
UNKNOWN                 
1 82829U          25255.29055719  .00000051  00000+0  25743-2 0  9994
2 82829  65.0974 205.2677 0169199 353.2484 159.3396 11.29113758475757
